CTC1_L_00082001-01
1 34651U 23181JT  26037.47802083  .00000000  00000+0  00000-0 0  9993
2 34651  45.0000   0.0000 0000000   0.0000   0.0000 14.79785919    11
CTC1_L_00082001-02
1 34652U 26164KC  26037.47802083  .00000000  00000+0  00000-0 0  9998
2 34652  45.0000   0.0000 0000000   0.0000  90.0000 14.79785919    11
CTC1_L_00082001-03
1 34653U 25052VJ  26037.47802083  .00000000  00000+0  00000-0 0  9994
2 34653  45.0000   0.0000 0000000   0.0000 180.0000 14.79785919    12
CTC1_L_00082001-04
1 34654U 22181ZN  26037.47802083  .00000000  00000+0  00000-0 0  9995
2 34654  45.0000   0.0000 0000000   0.0000 270.0000 14.79785919    13
CTC1_L_00082002-01
1 34655U 23389YM  26037.47802083  .00000000  00000+0  00000-0 0  9997
2 34655  45.0000  12.0000 0000000   0.0000  12.0000 14.79785919    11
CTC1_L_00082002-02
1 34656U 22356QU  26037.47802083  .00000000  00000+0  00000-0 0  9991
2 34656  45.0000  12.0000 0000000   0.0000 102.0000 14.79785919    12
CTC1_L_00082002-03
1 34657U 25660CQ  26037.47802083  .00000000  00000+0  00000-0 0  9993
2 34657  45.0000  12.0000 0000000   0.0000 192.0000 14.79785919    12
CTC1_L_00082002-04
1 34658U 26920ZR  26037.47802083  .00000000  00000+0  00000-0 0  9994
2 34658  45.0000  12.0000 0000000   0.0000 282.0000 14.79785919    13
CTC1_L_00082003-01
1 34659U 22445ZJ  26037.47802083  .00000000  00000+0  00000-0 0  9993
2 34659  45.0000  24.0000 0000000   0.0000  24.0000 14.79785919    11
CTC1_L_00082003-02
1 34660U 26438QI  26037.47802083  .00000000  00000+0  00000-0 0  9991
2 34660  45.0000  24.0000 0000000   0.0000 114.0000 14.79785919    13
CTC1_L_00082003-03
1 34661U 26245EF  26037.47802083  .00000000  00000+0  00000-0 0  9998
2 34661  45.0000  24.0000 0000000   0.0000 204.0000 14.79785919    14
CTC1_L_00082003-04
1 34662U 26913IF  26037.47802083  .00000000  00000+0  00000-0 0  9991
2 34662  45.0000  24.0000 0000000   0.0000 294.0000 14.79785919    14
CTC1_L_00082004-01
1 34663U 23851BG  26037.47802083  .00000000  00000+0  00000-0 0  9990
2 34663  45.0000  36.0000 0000000   0.0000  36.0000 14.79785919    12
CTC1_L_00082004-02
1 34664U 26319FA  26037.47802083  .00000000  00000+0  00000-0 0  9993
2 34664  45.0000  36.0000 0000000   0.0000 126.0000 14.79785919    13
CTC1_L_00082004-03
1 34665U 22163ZZ  26037.47802083  .00000000  00000+0  00000-0 0  9997
2 34665  45.0000  36.0000 0000000   0.0000 216.0000 14.79785919    14
CTC1_L_00082004-04
1 34666U 24647EH  26037.47802083  .00000000  00000+0  00000-0 0  9997
2 34666  45.0000  36.0000 0000000   0.0000 306.0000 14.79785919    15
CTC1_L_00082005-01
1 34667U 23242QZ  26037.47802083  .00000000  00000+0  00000-0 0  9998
2 34667  45.0000  48.0000 0000000   0.0000  48.0000 14.79785919    12
CTC1_L_00082005-02
1 34668U 22382JV  26037.47802083  .00000000  00000+0  00000-0 0  9993
2 34668  45.0000  48.0000 0000000   0.0000 138.0000 14.79785919    13
CTC1_L_00082005-03
1 34669U 23931ZO  26037.47802083  .00000000  00000+0  00000-0 0  9995
2 34669  45.0000  48.0000 0000000   0.0000 228.0000 14.79785919    14
CTC1_L_00082005-04
1 34670U 23515VE  26037.47802083  .00000000  00000+0  00000-0 0  9995
2 34670  45.0000  48.0000 0000000   0.0000 318.0000 14.79785919    16
CTC1_L_00082006-01
1 34671U 25810FQ  26037.47802083  .00000000  00000+0  00000-0 0  9996
2 34671  45.0000  60.0000 0000000   0.0000  60.0000 14.79785919    15
CTC1_L_00082006-02
1 34672U 23235IE  26037.47802083  .00000000  00000+0  00000-0 0  9996
2 34672  45.0000  60.0000 0000000   0.0000 150.0000 14.79785919    16
CTC1_L_00082006-03
1 34673U 26844FF  26037.47802083  .00000000  00000+0  00000-0 0  9996
2 34673  45.0000  60.0000 0000000   0.0000 240.0000 14.79785919    17
CTC1_L_00082006-04
1 34674U 25531RU  26037.47802083  .00000000  00000+0  00000-0 0  9999
2 34674  45.0000  60.0000 0000000   0.0000 330.0000 14.79785919    18
CTC1_L_00082007-01
1 34675U 25826UC  26037.47802083  .00000000  00000+0  00000-0 0  9997
2 34675  45.0000  72.0000 0000000   0.0000  72.0000 14.79785919    15
CTC1_L_00082007-02
1 34676U 22314SM  26037.47802083  .00000000  00000+0  00000-0 0  9997
2 34676  45.0000  72.0000 0000000   0.0000 162.0000 14.79785919    16
CTC1_L_00082007-03
1 34677U 22814GF  26037.47802083  .00000000  00000+0  00000-0 0  9993
2 34677  45.0000  72.0000 0000000   0.0000 252.0000 14.79785919    17
CTC1_L_00082007-04
1 34678U 26299BX  26037.47802083  .00000000  00000+0  00000-0 0  9995
2 34678  45.0000  72.0000 0000000   0.0000 342.0000 14.79785919    18
CTC1_L_00082008-01
1 34679U 25611UT  26037.47802083  .00000000  00000+0  00000-0 0  9993
2 34679  45.0000  84.0000 0000000   0.0000  84.0000 14.79785919    15
CTC1_L_00082008-02
1 34680U 24346MI  26037.47802083  .00000000  00000+0  00000-0 0  9999
2 34680  45.0000  84.0000 0000000   0.0000 174.0000 14.79785919    17
CTC1_L_00082008-03
1 34681U 23222FU  26037.47802083  .00000000  00000+0  00000-0 0  9992
2 34681  45.0000  84.0000 0000000   0.0000 264.0000 14.79785919    18
CTC1_L_00082008-04
1 34682U 25970VD  26037.47802083  .00000000  00000+0  00000-0 0  9995
2 34682  45.0000  84.0000 0000000   0.0000 354.0000 14.79785919    19
CTC1_L_00082009-01
1 34683U 25716RT  26037.47802083  .00000000  00000+0  00000-0 0  9994
2 34683  45.0000  96.0000 0000000   0.0000  96.0000 14.79785919    16
CTC1_L_00082009-02
1 34684U 22226ZG  26037.47802083  .00000000  00000+0  00000-0 0  9998
2 34684  45.0000  96.0000 0000000   0.0000 186.0000 14.79785919    17
CTC1_L_00082009-03
1 34685U 22970SJ  26037.47802083  .00000000  00000+0  00000-0 0  9995
2 34685  45.0000  96.0000 0000000   0.0000 276.0000 14.79785919    18
CTC1_L_00082009-04
1 34686U 23690RB  26037.47802083  .00000000  00000+0  00000-0 0  9996
2 34686  45.0000  96.0000 0000000   0.0000   6.0000 14.79785919    10
CTC1_L_00082010-01
1 34687U 24378SA  26037.47802083  .00000000  00000+0  00000-0 0  9991
2 34687  45.0000 108.0000 0000000   0.0000 108.0000 14.79785919    18
CTC1_L_00082010-02
1 34688U 26673YW  26037.47802083  .00000000  00000+0  00000-0 0  9992
2 34688  45.0000 108.0000 0000000   0.0000 198.0000 14.79785919    18
CTC1_L_00082010-03
1 34689U 23373DK  26037.47802083  .00000000  00000+0  00000-0 0  9997
2 34689  45.0000 108.0000 0000000   0.0000 288.0000 14.79785919    19
CTC1_L_00082010-04
1 34690U 25383EK  26037.47802083  .00000000  00000+0  00000-0 0  9992
2 34690  45.0000 108.0000 0000000   0.0000  18.0000 14.79785919    12
CTC1_L_00082011-01
1 34691U 25887IC  26037.47802083  .00000000  00000+0  00000-0 0  9992
2 34691  45.0000 120.0000 0000000   0.0000 120.0000 14.79785919    11
CTC1_L_00082011-02
1 34692U 22971FB  26037.47802083  .00000000  00000+0  00000-0 0  9994
2 34692  45.0000 120.0000 0000000   0.0000 210.0000 14.79785919    12
CTC1_L_00082011-03
1 34693U 24620BH  26037.47802083  .00000000  00000+0  00000-0 0  9998
2 34693  45.0000 120.0000 0000000   0.0000 300.0000 14.79785919    13
CTC1_L_00082011-04
1 34694U 26090AW  26037.47802083  .00000000  00000+0  00000-0 0  9992
2 34694  45.0000 120.0000 0000000   0.0000  30.0000 14.79785919    14
CTC1_L_00082012-01
1 34695U 25804JR  26037.47802083  .00000000  00000+0  00000-0 0  9995
2 34695  45.0000 132.0000 0000000   0.0000 132.0000 14.79785919    11
CTC1_L_00082012-02
1 34696U 23528OQ  26037.47802083  .00000000  00000+0  00000-0 0  9997
2 34696  45.0000 132.0000 0000000   0.0000 222.0000 14.79785919    12
CTC1_L_00082012-03
1 34697U 22795EB  26037.47802083  .00000000  00000+0  00000-0 0  9993
2 34697  45.0000 132.0000 0000000   0.0000 312.0000 14.79785919    13
CTC1_L_00082012-04
1 34698U 23377UI  26037.47802083  .00000000  00000+0  00000-0 0  9991
2 34698  45.0000 132.0000 0000000   0.0000  42.0000 14.79785919    14
CTC1_L_00082013-01
1 34699U 25555LJ  26037.47802083  .00000000  00000+0  00000-0 0  9992
2 34699  45.0000 144.0000 0000000   0.0000 144.0000 14.79785919    11
CTC1_L_00082013-02
1 34700U 24576LX  26037.47802083  .00000000  00000+0  00000-0 0  9997
2 34700  45.0000 144.0000 0000000   0.0000 234.0000 14.79785919    14
CTC1_L_00082013-03
1 34701U 26302WU  26037.47802083  .00000000  00000+0  00000-0 0  9997
2 34701  45.0000 144.0000 0000000   0.0000 324.0000 14.79785919    15
CTC1_L_00082013-04
1 34702U 24533VK  26037.47802083  .00000000  00000+0  00000-0 0  9992
2 34702  45.0000 144.0000 0000000   0.0000  54.0000 14.79785919    16
CTC1_L_00082014-01
1 34703U 23070FA  26037.47802083  .00000000  00000+0  00000-0 0  9998
2 34703  45.0000 156.0000 0000000   0.0000 156.0000 14.79785919    13
CTC1_L_00082014-02
1 34704U 22365XI  26037.47802083  .00000000  00000+0  00000-0 0  9995
2 34704  45.0000 156.0000 0000000   0.0000 246.0000 14.79785919    14
CTC1_L_00082014-03
1 34705U 25093IF  26037.47802083  .00000000  00000+0  00000-0 0  9997
2 34705  45.0000 156.0000 0000000   0.0000 336.0000 14.79785919    15
CTC1_L_00082014-04
1 34706U 26468AU  26037.47802083  .00000000  00000+0  00000-0 0  9995
2 34706  45.0000 156.0000 0000000   0.0000  66.0000 14.79785919    16
CTC1_L_00082015-01
1 34707U 22108L   26037.47802083  .00000000  00000+0  00000-0 0  9993
2 34707  45.0000 168.0000 0000000   0.0000 168.0000 14.79785919    13
CTC1_L_00082015-02
1 34708U 26204EQ  26037.47802083  .00000000  00000+0  00000-0 0  9995
2 34708  45.0000 168.0000 0000000   0.0000 258.0000 14.79785919    14
CTC1_L_00082015-03
1 34709U 23946ED  26037.47802083  .00000000  00000+0  00000-0 0  9996
2 34709  45.0000 168.0000 0000000   0.0000 348.0000 14.79785919    15
CTC1_L_00082015-04
1 34710U 25660XK  26037.47802083  .00000000  00000+0  00000-0 0  9993
2 34710  45.0000 168.0000 0000000   0.0000  78.0000 14.79785919    17
CTC1_L_00082016-01
1 34711U 23192TY  26037.47802083  .00000000  00000+0  00000-0 0  9992
2 34711  45.0000 180.0000 0000000   0.0000 180.0000 14.79785919    16
CTC1_L_00082016-02
1 34712U 23848QM  26037.47802083  .00000000  00000+0  00000-0 0  9991
2 34712  45.0000 180.0000 0000000   0.0000 270.0000 14.79785919    17
